[{"OBJECT_NAME":"HERMES-2","OBJECT_ID":"2025-052AK","EPOCH":"2026-03-09T22:17:00.130272","MEAN_MOTION":15.28021069,"ECCENTRICITY":0.00063399,"INCLINATION":97.4004,"RA_OF_ASC_NODE":324.4926,"ARG_OF_PERICENTER":99.416,"MEAN_ANOMALY":260.7796,"EPHEMERIS_TYPE":0,"CLASSIFICATION_TYPE":"U","NORAD_CAT_ID":63243,"ELEMENT_SET_NO":999,"REV_AT_EPOCH":5485,"BSTAR":0.00034839454,"MEAN_MOTION_DOT":9.456e-5,"MEAN_MOTION_DDOT":0},{"OBJECT_NAME":"STARLINK-34198","OBJECT_ID":"2025-127U","EPOCH":"2026-03-09T07:30:21.320064","MEAN_MOTION":15.27593906,"ECCENTRICITY":0.00013649,"INCLINATION":42.9952,"RA_OF_ASC_NODE":181.5401,"ARG_OF_PERICENTER":174.3802,"MEAN_ANOMALY":185.7065,"EPHEMERIS_TYPE":0,"CLASSIFICATION_TYPE":"U","NORAD_CAT_ID":64388,"ELEMENT_SET_NO":999,"REV_AT_EPOCH":4241,"BSTAR":0.0010034352,"MEAN_MOTION_DOT":0.00027465,"MEAN_MOTION_DDOT":0}]
